IRIDIUM 7 [-]           
1 24793U 97020B   23308.87473331  .00000756  00000+0  25903-3 0  9994
2 24793  86.3965  64.1482 0001815  93.9297 266.2107 14.34959331387210
IRIDIUM 5 [-]           
1 24795U 97020D   23308.62814316  .00004266  00000+0  42426-3 0  9990
2 24795  86.3956 353.7055 0129704  82.3751 279.2182 14.85209778397565
IRIDIUM 4 [-]           
1 24796U 97020E   23308.81608184  .00000813  00000+0  27401-3 0  9996
2 24796  86.3966  61.4421 0002012  88.7499 271.3928 14.35866763387724
IRIDIUM 914 [-]         
1 24836U 97030A   23308.89112171  .00000979  00000+0  30683-3 0  9995
2 24836  86.3926  71.7395 0002885  51.8988 308.2470 14.39678575522168
IRIDIUM 16 [-]          
1 24841U 97030F   23308.88427885  .00000992  00000+0  32446-3 0  9995
2 24841  86.4000  93.1528 0002295 149.5283 210.6048 14.37566193382163
IRIDIUM 911 [-]         
1 24842U 97030G   23308.90278454  .00001324  00000+0  36542-3 0  9996
2 24842  86.4427  92.4581 0012324 263.4047  96.5753 14.46099082389738
IRIDIUM 17 [-]          
1 24870U 97034B   23308.92007662  .00000872  00000+0  28963-3 0  9999
2 24870  86.3925 122.8091 0003299 114.7439 245.4102 14.36658576378806
IRIDIUM 920 [-]         
1 24871U 97034C   23309.16306301  .00001133  00000+0  35094-3 0  9993
2 24871  86.3935 103.3064 0010186 219.5837 140.4620 14.40379436381871
